ASNARO-2                
1 43152U 18007A   26177.25645606  .00009478  00000+0  41278-3 0  9990
2 43152  97.3968 184.0418 0001834  95.7049 264.4397 15.22421562468794
JILIN-1 07              
1 43159U 18008E   26177.28587664  .00009346  00000+0  27832-3 0  9994
2 43159  97.1768 196.9719 0009067  37.7780 322.4099 15.34866478466397
JILIN-1 08              
1 43160U 18008F   26177.29222253  .00006137  00000+0  18989-3 0  9995
2 43160  97.1802 196.2848 0007500  55.0727 305.1220 15.33809656466341
S-NET D                 
1 43186U 18014G   26177.23642252  .00005438  00000+0  28038-3 0  9998
2 43186  97.5361  81.9703 0007959   0.9042 359.2204 15.16751845460130
S-NET B                 
1 43187U 18014H   26176.98415783  .00005231  00000+0  27009-3 0  9995
2 43187  97.5364  81.7067 0008424 356.0360   4.0805 15.16719444460097
S-NET A                 
1 43188U 18014J   26176.97136337  .00005346  00000+0  27568-3 0  9997
2 43188  97.5376  81.9043 0008359 357.0429   3.0753 15.16756821460092
S-NET C                 
1 43189U 18014K   26177.25197352  .00005263  00000+0  27171-3 0  9992
2 43189  97.5390  82.2596 0009414 346.6667  13.4316 15.16714747458680
PAZ                     
1 43215U 18020A   26177.26269815  .00001768  00000+0  87381-4 0  9990
2 43215  97.4448 184.5193 0001698  87.0987 273.0442 15.19150305462382
GOES 17                 
1 43226U 18022A   26177.19157198 -.00000172  00000+0  00000+0 0  9993
2 43226   0.9597  85.5608 0000680  23.4402 144.7721  1.00272828 30515
LKW-4                   
1 43236U 18025A   26176.98070855  .00046334  00000+0  51137-3 0  9997
2 43236  97.6343 348.5475 0002297 248.3343 111.7670 15.62950759461402
ZHUHAI-1 OVS-02         
1 43440U 18040B   26177.28609635  .00007474  00000+0  30084-3 0  9999
2 43440  97.0385 193.9760 0002837 188.8695 171.2495 15.25138511454104
ZHUHAI-1 OHS-02         
1 43441U 18040C   26177.33163775  .00008721  00000+0  34123-3 0  9990
2 43441  97.0369 200.9676 0009207 185.2859 174.8285 15.26006703115673
GAOFEN-6                
1 43484U 18048A   26176.81301529  .00000286  00000+0  48573-4 0  9991
2 43484  98.0567 239.4730 0011702 138.2343 221.9762 14.76423510434668
LUOJIA-1 01             
1 43485U 18048B   26177.25667647  .00002842  00000+0  32055-3 0  9994
2 43485  97.8106 255.2996 0010548  91.5295 268.7130 14.87319192435569
PAKTES 1A               
1 43529U 18056A   26177.28252912  .00002440  00000+0  20518-3 0  9995
2 43529  98.1283 334.1573 0021271  78.1699 282.1907 14.99133490433287
PRSS-1                  
1 43530U 18056B   26177.30478461  .00000992  00000+0  13148-3 0  9990
2 43530  97.7820 244.9223 0001524  75.3361 284.8021 14.82002584429782
HAIYANG-1C              
1 43609U 18068A   26177.31464531  .00000097  00000+0  50021-4 0  9992
2 43609  98.5190 249.4908 0012060  69.9538 290.2944 14.34181395408394
SSTL S1-4               
1 43618U 18071A   26177.25067463  .00001062  00000+0  99146-4 0  9996
2 43618  97.5019  48.4872 0001790 114.2493 245.8916 14.96172976424297
HAIYANG-2B              
1 43655U 18081A   26177.30288634 -.00000034  00000+0  10212-4 0  9995
2 43655  99.3286 185.9215 0000041 185.0726 175.0425 13.79307489386188
CFOSAT                  
1 43662U 18083A   26177.26610964  .00003331  00000+0  17471-3 0  9990
2 43662  97.3603 181.5290 0002366  85.1302 275.0201 15.16426923423817
TEN-KOH                 
1 43677U 18084G   26177.11155188  .00001672  00000+0  12922-3 0  9995
2 43677  98.0758   9.8520 0011292  88.8739 271.3778 15.02970141417500
DIWATA-2B               
1 43678U 18084H   26177.23930803  .00002241  00000+0  18283-3 0  9993
2 43678  98.1205  13.8421 0012987 141.7134 218.5013 15.00488985417574
STARS-AO                
1 43679U 18084J   26177.17562014  .00006343  00000+0  32339-3 0  9997
2 43679  98.0499  31.7014 0003434 118.4577 241.7001 15.17145277418832
AUTCUBE 2               
1 43681U 18084K   26177.10939887  .00004134  00000+0  25755-3 0  9999
2 43681  98.0706  23.7569 0009339  22.2715 337.8917 15.10147299418278
METOP-C                 
1 43689U 18087A   26177.21840237  .00000084  00000+0  58143-4 0  9990
2 43689  98.6640 236.6568 0002034 117.9684 242.1700 14.21514341396118
ES'HAIL 2               
1 43700U 18090A   26176.67268748  .00000155  00000+0  00000+0 0  9991
2 43700   0.0185 341.0996 0002207 148.5722  52.1049  1.00274106 27766
MOHAMMED VI-B           
1 43717U 18095A   26177.25417104  .00000798  00000+0  12035-3 0  9999
2 43717  97.9556 249.4548 0001503  98.1660 261.9721 14.77059466409527
HYSIS                   
1 43719U 18096A   26177.27942332  .00001416  00000+0  20045-3 0  9998
2 43719  97.9839 243.9565 0001843  93.6722 266.4700 14.78634001408764
COSMOS 2530 (RODNIK-S *)
1 43751U 18097A   26177.31194013 -.00000083  00000+0 -66964-3 0  9996
2 43751  82.5136 216.6178 0019836  20.2660 339.9203 12.42880791343428
