OBJECT_NAME,OBJECT_ID,EPOCH,MEAN_MOTION,ECCENTRICITY,INCLINATION,RA_OF_ASC_NODE,ARG_OF_PERICENTER,MEAN_ANOMALY,EPHEMERIS_TYPE,CLASSIFICATION_TYPE,NORAD_CAT_ID,ELEMENT_SET_NO,REV_AT_EPOCH,BSTAR,MEAN_MOTION_DOT,MEAN_MOTION_DDOT
ASNARO-2,2018-007A,2026-06-26T06:09:17.803584,15.22421562,.00018345,97.3968,184.0418,95.7049,264.4397,0,U,43152,999,46879,.41278181E-3,.9478E-4,0
JILIN-1 07,2018-008E,2026-06-26T06:51:39.741696,15.34866478,.00090676,97.1768,196.9719,37.7780,322.4099,0,U,43159,999,46639,.27831882E-3,.9346E-4,0
JILIN-1 08,2018-008F,2026-06-26T07:00:48.026592,15.33809656,.00075004,97.1802,196.2848,55.0727,305.1220,0,U,43160,999,46634,.18988551E-3,.6137E-4,0
S-NET D,2018-014G,2026-06-26T05:40:26.905728,15.16751845,.00079595,97.5361,81.9703,0.9042,359.2204,0,U,43186,999,46013,.28037815E-3,.5438E-4,0
S-NET B,2018-014H,2026-06-25T23:37:11.236512,15.16719444,.00084244,97.5364,81.7067,356.0360,4.0805,0,U,43187,999,46009,.27009181E-3,.5231E-4,0
S-NET A,2018-014J,2026-06-25T23:18:45.795168,15.16756821,.00083599,97.5376,81.9043,357.0429,3.0753,0,U,43188,999,46009,.27568138E-3,.5346E-4,0
S-NET C,2018-014K,2026-06-26T06:02:50.512128,15.16714747,.00094141,97.5390,82.2596,346.6667,13.4316,0,U,43189,999,45868,.27171179E-3,.5263E-4,0
PAZ,2018-020A,2026-06-26T06:18:17.120160,15.19150305,.00016986,97.4448,184.5193,87.0987,273.0442,0,U,43215,999,46238,.87381132E-4,.1768E-4,0
GOES 17,2018-022A,2026-06-26T04:35:51.819072,1.00272828,.00006803,0.9597,85.5608,23.4402,144.7721,0,U,43226,999,3051,0,-.172E-5,0
LKW-4,2018-025A,2026-06-25T23:32:13.218720,15.62950759,.0002297,97.6343,348.5475,248.3343,111.7670,0,U,43236,999,46140,.51137304E-3,.46334E-3,0
ZHUHAI-1 OVS-02,2018-040B,2026-06-26T06:51:58.724640,15.25138511,.00028375,97.0385,193.9760,188.8695,171.2495,0,U,43440,999,45410,.30084093E-3,.7474E-4,0
ZHUHAI-1 OHS-02,2018-040C,2026-06-26T07:57:33.501600,15.26006703,.0009207,97.0369,200.9676,185.2859,174.8285,0,U,43441,999,11567,.34122973E-3,.8721E-4,0
GAOFEN-6,2018-048A,2026-06-25T19:30:44.521056,14.76423510,.00117023,98.0567,239.4730,138.2343,221.9762,0,U,43484,999,43466,.48573015E-4,.286E-5,0
LUOJIA-1 01,2018-048B,2026-06-26T06:09:36.847008,14.87319192,.00105485,97.8106,255.2996,91.5295,268.7130,0,U,43485,999,43556,.32054526E-3,.2842E-4,0
PAKTES 1A,2018-056A,2026-06-26T06:46:50.515968,14.99133490,.00212719,98.1283,334.1573,78.1699,282.1907,0,U,43529,999,43328,.20518051E-3,.244E-4,0
PRSS-1,2018-056B,2026-06-26T07:18:53.390304,14.82002584,.00015248,97.7820,244.9223,75.3361,284.8021,0,U,43530,999,42978,.13148376E-3,.992E-5,0
HAIYANG-1C,2018-068A,2026-06-26T07:33:05.354784,14.34181395,.00120607,98.5190,249.4908,69.9538,290.2944,0,U,43609,999,40839,.50021435E-4,.97E-6,0
SSTL S1-4,2018-071A,2026-06-26T06:00:58.288032,14.96172976,.00017907,97.5019,48.4872,114.2493,245.8916,0,U,43618,999,42429,.99146008E-4,.1062E-4,0
HAIYANG-2B,2018-081A,2026-06-26T07:16:09.379776,13.79307489,.0000041,99.3286,185.9215,185.0726,175.0425,0,U,43655,999,38618,.10211785E-4,-.34E-6,0
CFOSAT,2018-083A,2026-06-26T06:23:11.872896,15.16426923,.0002366,97.3603,181.5290,85.1302,275.0201,0,U,43662,999,42381,.17470822E-3,.3331E-4,0
TEN-KOH,2018-084G,2026-06-26T02:40:38.082432,15.02970141,.00112922,98.0758,9.8520,88.8739,271.3778,0,U,43677,999,41750,.12922168E-3,.1672E-4,0
DIWATA-2B,2018-084H,2026-06-26T05:44:36.213792,15.00488985,.00129872,98.1205,13.8421,141.7134,218.5013,0,U,43678,999,41757,.18283369E-3,.2241E-4,0
STARS-AO,2018-084J,2026-06-26T04:12:53.580096,15.17145277,.0003434,98.0499,31.7014,118.4577,241.7001,0,U,43679,999,41883,.32338711E-3,.6343E-4,0
AUTCUBE 2,2018-084K,2026-06-26T02:37:32.062368,15.10147299,.00093399,98.0706,23.7569,22.2715,337.8917,0,U,43681,999,41827,.25754759E-3,.4134E-4,0
METOP-C,2018-087A,2026-06-26T05:14:29.964768,14.21514341,.00020346,98.6640,236.6568,117.9684,242.1700,0,U,43689,999,39611,.58143473E-4,.84E-6,0
ES'HAIL 2,2018-090A,2026-06-25T16:08:40.198272,1.00274106,.0002207,0.0185,341.0996,148.5722,52.1049,0,U,43700,999,2776,0,.155E-5,0
MOHAMMED VI-B,2018-095A,2026-06-26T06:06:00.377856,14.77059466,.00015039,97.9556,249.4548,98.1660,261.9721,0,U,43717,999,40952,.12034541E-3,.798E-5,0
HYSIS,2018-096A,2026-06-26T06:42:22.174848,14.78634001,.00018434,97.9839,243.9565,93.6722,266.4700,0,U,43719,999,40876,.20044819E-3,.1416E-4,0
COSMOS 2530 (RODNIK-S 16),2018-097A,2026-06-26T07:29:11.627232,12.42880791,.00198368,82.5136,216.6178,20.2660,339.9203,0,U,43751,999,34342,-.66963747E-3,-.83E-6,0
